[{"OBJECT_NAME":"VRSS-1","OBJECT_ID":"2012-052A","EPOCH":"2026-03-09T23:06:08.647776","MEAN_MOTION":14.79803332,"ECCENTRICITY":0.00171344,"INCLINATION":97.6079,"RA_OF_ASC_NODE":50.4386,"ARG_OF_PERICENTER":196.7503,"MEAN_ANOMALY":163.3146,"EPHEMERIS_TYPE":0,"CLASSIFICATION_TYPE":"U","NORAD_CAT_ID":38782,"ELEMENT_SET_NO":999,"REV_AT_EPOCH":72493,"BSTAR":0.00021678471,"MEAN_MOTION_DOT":1.587e-5,"MEAN_MOTION_DDOT":0},{"OBJECT_NAME":"CZ-6A DEB","OBJECT_ID":"2022-151TH","EPOCH":"2026-03-09T15:58:56.721792","MEAN_MOTION":14.70832733,"ECCENTRICITY":0.00725866,"INCLINATION":98.6342,"RA_OF_ASC_NODE":130.6304,"ARG_OF_PERICENTER":232.0385,"MEAN_ANOMALY":127.4247,"EPHEMERIS_TYPE":0,"CLASSIFICATION_TYPE":"U","NORAD_CAT_ID":54968,"ELEMENT_SET_NO":999,"REV_AT_EPOCH":17568,"BSTAR":0.0024245836,"MEAN_MOTION_DOT":0.00015408,"MEAN_MOTION_DDOT":0}]
